LEMUR-2-GREENBERG       
1 42837U 17042N   26068.46200528  .00019778  00000+0  72539-3 0  9997
2 42837  97.3781 249.8007 0009157   4.0119 356.1192 15.27971352473146
STARLINK-31191          
1 58800U 24012P   26068.32612010 -.00002857  00000+0 -94377-4 0  9994
2 58800  42.9995 167.0192 0000611 223.2336 136.8468 15.27576274121181
